{"fetched_at": "2026-03-16T06:28:59.653625+00:00", "count": 375, "satellites": [ {"name": "SOYUZ-MS 28", "tle1": "1 66664U 25275A   26074.83790868  .00008038  00000+0  15762-3 0  9999", "tle2": "2 66664  51.6331  41.9615 0006336 194.9995 165.0806 15.48299420554520", "norad_id": 66664, "group": "stations", "highlight": false}, {"name": "DUPLEX", "tle1": "1 66906U 98067XS  26074.62160253  .00028497  00000+0  39788-3 0  9998", "tle2": "2 66906  51.6294  39.7700 0002794 138.5108 221.6097 15.56634012 16052", "norad_id": 66906, "group": "stations", "highlight": false}, {"name": "ISS OBJECT XT", "tle1": "1 66907U 98067XT  26074.05627168  .00202137  00000+0  15333-2 0  9993", "tle2": "2 66907  51.6247  38.2251 0004688 115.4311 244.7173 15.71174897 16025", "norad_id": 66907, "group": "stations", "highlight": true}, {"name": "ISS OBJECT XU", "tle1": "1 66908U 98067XU  26074.05401917  .00202702  00000+0  15285-2 0  9990", "tle2": "2 66908  51.6248  38.2054 0004987 118.2627 241.8875 15.71313389 16029", "norad_id": 66908, "group": "stations", "highlight": true}, {"name": "SILVERSAT", "tle1": "1 66909U 98067XV  26074.86949331  .00243760  00000+0  15562-2 0  9994", "tle2": "2 66909  51.6239  33.1479 0005544 121.3817 238.7725 15.75078885 16168", "norad_id": 66909, "group": "stations", "highlight": false}, {"name": "ISS OBJECT XW", "tle1": "1 66910U 98067XW  26074.18095813  .00173075  00000+0  13629-2 0  9991", "tle2": "2 66910  51.6239  37.5499 0005353 120.8061 239.3464 15.70370803 16047", "norad_id": 66910, "group": "stations", "highlight": true}, {"name": "ISS OBJECT XX", "tle1": "1 66911U 98067XX  26074.91592794  .00318840  00000+0  16863-2 0  9997", "tle2": "2 66911  51.6205  31.9337 0007025 127.0108 233.1537 15.79102895 16179", "norad_id": 66911, "group": "stations", "highlight": true}, {"name": "ISS OBJECT XY", "tle1": "1 66912U 98067XY  26074.90600614  .00093849  00000+0  93179-3 0  9993", "tle2": "2 66912  51.6266  35.6624 0003508 126.1583 233.9737 15.64986449 16120", "norad_id": 66912, "group": "stations", "highlight": true}, {"name": "KNACKSAT-2", "tle1": "1 67683U 98067XZ  26074.90867292  .00038745  00000+0  62706-3 0  9992", "tle2": "2 67683  51.6312  40.9357 0009638 207.7517 152.2960 15.52379780  5752", "norad_id": 67683, "group": "stations", "highlight": false}, {"name": "GXIBA-1", "tle1": "1 67684U 98067YA  26074.93460682  .00075308  00000+0  10787-2 0  9995", "tle2": "2 67684  51.6302  40.3592 0011534 197.4309 162.6288 15.55425498  5769", "norad_id": 67684, "group": "stations", "highlight": false}, {"name": "CORAL", "tle1": "1 67685U 98067YB  26074.19471975  .00051896  00000+0  82451-3 0  9995", "tle2": "2 67685  51.6319  44.4177 0011534 201.7026 158.3476 15.52739690  5644", "norad_id": 67685, "group": "stations", "highlight": false}, {"name": "ISS OBJECT YC", "tle1": "1 67686U 98067YC  26074.89472385  .00050583  00000+0  78390-3 0  9998", "tle2": "2 67686  51.6316  40.8451 0008323 173.1262 186.9844 15.53475021  5757", "norad_id": 67686, "group": "stations", "highlight": true}, {"name": "LEOPARD", "tle1": "1 67687U 98067YD  26074.96993919  .00037658  00000+0  60567-3 0  9993", "tle2": "2 67687  51.6315  40.5968 0008155 177.1771 182.9267 15.52581437  5684", "norad_id": 67687, "group": "stations", "highlight": false}, {"name": "ISS OBJECT YE", "tle1": "1 67688U 98067YE  26074.19056187  .00057311  00000+0  89873-3 0  9995", "tle2": "2 67688  51.6315  44.3921 0008255 171.8524 188.2602 15.53094941  5563", "norad_id": 67688, "group": "stations", "highlight": true}, {"name": "CREW DRAGON 12", "tle1": "1 67796U 26031A   26074.83790868  .00008038  00000+0  15762-3 0  9997", "tle2": "2 67796  51.6331  41.9615 0006336 194.9995 165.0806 15.48299420557182", "norad_id": 67796, "group": "stations", "highlight": false}]}