[{"OBJECT_NAME":"SOYUZ-MS 28","OBJECT_ID":"2025-275A","EPOCH":"2026-03-15T20:06:35.309952","MEAN_MOTION":15.4829942,"ECCENTRICITY":0.00063362,"INCLINATION":51.6331,"RA_OF_ASC_NODE":41.9615,"ARG_OF_PERICENTER":194.9995,"MEAN_ANOMALY":165.0806,"EPHEMERIS_TYPE":0,"CLASSIFICATION_TYPE":"U","NORAD_CAT_ID":66664,"ELEMENT_SET_NO":999,"REV_AT_EPOCH":55452,"BSTAR":0.00015761534,"MEAN_MOTION_DOT":8.038e-5,"MEAN_MOTION_DDOT":0},{"OBJECT_NAME":"DUPLEX","OBJECT_ID":"1998-067XS","EPOCH":"2026-03-15T14:55:06.458592","MEAN_MOTION":15.56634012,"ECCENTRICITY":0.00027941,"INCLINATION":51.6294,"RA_OF_ASC_NODE":39.77,"ARG_OF_PERICENTER":138.5108,"MEAN_ANOMALY":221.6097,"EPHEMERIS_TYPE":0,"CLASSIFICATION_TYPE":"U","NORAD_CAT_ID":66906,"ELEMENT_SET_NO":999,"REV_AT_EPOCH":1605,"BSTAR":0.00039788089,"MEAN_MOTION_DOT":0.00028497,"MEAN_MOTION_DDOT":0},{"OBJECT_NAME":"ISS OBJECT XT","OBJECT_ID":"1998-067XT","EPOCH":"2026-03-15T01:21:01.873152","MEAN_MOTION":15.71174897,"ECCENTRICITY":0.00046884,"INCLINATION":51.6247,"RA_OF_ASC_NODE":38.2251,"ARG_OF_PERICENTER":115.4311,"MEAN_ANOMALY":244.7173,"EPHEMERIS_TYPE":0,"CLASSIFICATION_TYPE":"U","NORAD_CAT_ID":66907,"ELEMENT_SET_NO":999,"REV_AT_EPOCH":1602,"BSTAR":0.0015332922,"MEAN_MOTION_DOT":0.00202137,"MEAN_MOTION_DDOT":0},{"OBJECT_NAME":"ISS OBJECT XU","OBJECT_ID":"1998-067XU","EPOCH":"2026-03-15T01:17:47.256288","MEAN_MOTION":15.71313389,"ECCENTRICITY":0.00049873,"INCLINATION":51.6248,"RA_OF_ASC_NODE":38.2054,"ARG_OF_PERICENTER":118.2627,"MEAN_ANOMALY":241.8875,"EPHEMERIS_TYPE":0,"CLASSIFICATION_TYPE":"U","NORAD_CAT_ID":66908,"ELEMENT_SET_NO":999,"REV_AT_EPOCH":1602,"BSTAR":0.0015284504,"MEAN_MOTION_DOT":0.00202702,"MEAN_MOTION_DDOT":0},{"OBJECT_NAME":"SILVERSAT","OBJECT_ID":"1998-067XV","EPOCH":"2026-03-15T20:52:04.221984","MEAN_MOTION":15.75078885,"ECCENTRICITY":0.0005544,"INCLINATION":51.6239,"RA_OF_ASC_NODE":33.1479,"ARG_OF_PERICENTER":121.3817,"MEAN_ANOMALY":238.7725,"EPHEMERIS_TYPE":0,"CLASSIFICATION_TYPE":"U","NORAD_CAT_ID":66909,"ELEMENT_SET_NO":999,"REV_AT_EPOCH":1616,"BSTAR":0.0015562219,"MEAN_MOTION_DOT":0.0024376,"MEAN_MOTION_DDOT":0},{"OBJECT_NAME":"ISS OBJECT XW","OBJECT_ID":"1998-067XW","EPOCH":"2026-03-15T04:20:34.782432","MEAN_MOTION":15.70370803,"ECCENTRICITY":0.00053536,"INCLINATION":51.6239,"RA_OF_ASC_NODE":37.5499,"ARG_OF_PERICENTER":120.8061,"MEAN_ANOMALY":239.3464,"EPHEMERIS_TYPE":0,"CLASSIFICATION_TYPE":"U","NORAD_CAT_ID":66910,"ELEMENT_SET_NO":999,"REV_AT_EPOCH":1604,"BSTAR":0.0013629257,"MEAN_MOTION_DOT":0.00173075,"MEAN_MOTION_DDOT":0},{"OBJECT_NAME":"ISS OBJECT XX","OBJECT_ID":"1998-067XX","EPOCH":"2026-03-15T21:58:56.174016","MEAN_MOTION":15.79102895,"ECCENTRICITY":0.00070252,"INCLINATION":51.6205,"RA_OF_ASC_NODE":31.9337,"ARG_OF_PERICENTER":127.0108,"MEAN_ANOMALY":233.1537,"EPHEMERIS_TYPE":0,"CLASSIFICATION_TYPE":"U","NORAD_CAT_ID":66911,"ELEMENT_SET_NO":999,"REV_AT_EPOCH":1617,"BSTAR":0.0016862534,"MEAN_MOTION_DOT":0.0031884,"MEAN_MOTION_DDOT":0},{"OBJECT_NAME":"ISS OBJECT XY","OBJECT_ID":"1998-067XY","EPOCH":"2026-03-15T21:44:38.930496","MEAN_MOTION":15.64986449,"ECCENTRICITY":0.0003508,"INCLINATION":51.6266,"RA_OF_ASC_NODE":35.6624,"ARG_OF_PERICENTER":126.1583,"MEAN_ANOMALY":233.9737,"EPHEMERIS_TYPE":0,"CLASSIFICATION_TYPE":"U","NORAD_CAT_ID":66912,"ELEMENT_SET_NO":999,"REV_AT_EPOCH":1612,"BSTAR":0.0009317911,"MEAN_MOTION_DOT":0.00093849,"MEAN_MOTION_DDOT":0},{"OBJECT_NAME":"KNACKSAT-2","OBJECT_ID":"1998-067XZ","EPOCH":"2026-03-15T21:48:29.340288","MEAN_MOTION":15.5237978,"ECCENTRICITY":0.00096388,"INCLINATION":51.6312,"RA_OF_ASC_NODE":40.9357,"ARG_OF_PERICENTER":207.7517,"MEAN_ANOMALY":152.296,"EPHEMERIS_TYPE":0,"CLASSIFICATION_TYPE":"U","NORAD_CAT_ID":67683,"ELEMENT_SET_NO":999,"REV_AT_EPOCH":575,"BSTAR":0.00062705577,"MEAN_MOTION_DOT":0.00038745,"MEAN_MOTION_DDOT":0},{"OBJECT_NAME":"GXIBA-1","OBJECT_ID":"1998-067YA","EPOCH":"2026-03-15T22:25:50.029248","MEAN_MOTION":15.55425498,"ECCENTRICITY":0.00115342,"INCLINATION":51.6302,"RA_OF_ASC_NODE":40.3592,"ARG_OF_PERICENTER":197.4309,"MEAN_ANOMALY":162.6288,"EPHEMERIS_TYPE":0,"CLASSIFICATION_TYPE":"U","NORAD_CAT_ID":67684,"ELEMENT_SET_NO":999,"REV_AT_EPOCH":576,"BSTAR":0.0010787032,"MEAN_MOTION_DOT":0.00075308,"MEAN_MOTION_DDOT":0},{"OBJECT_NAME":"CORAL","OBJECT_ID":"1998-067YB","EPOCH":"2026-03-15T04:40:23.786400","MEAN_MOTION":15.5273969,"ECCENTRICITY":0.00115347,"INCLINATION":51.6319,"RA_OF_ASC_NODE":44.4177,"ARG_OF_PERICENTER":201.7026,"MEAN_ANOMALY":158.3476,"EPHEMERIS_TYPE":0,"CLASSIFICATION_TYPE":"U","NORAD_CAT_ID":67685,"ELEMENT_SET_NO":999,"REV_AT_EPOCH":564,"BSTAR":0.00082450602,"MEAN_MOTION_DOT":0.00051896,"MEAN_MOTION_DDOT":0},{"OBJECT_NAME":"ISS OBJECT YC","OBJECT_ID":"1998-067YC","EPOCH":"2026-03-15T21:28:24.140640","MEAN_MOTION":15.53475021,"ECCENTRICITY":0.00083231,"INCLINATION":51.6316,"RA_OF_ASC_NODE":40.8451,"ARG_OF_PERICENTER":173.1262,"MEAN_ANOMALY":186.9844,"EPHEMERIS_TYPE":0,"CLASSIFICATION_TYPE":"U","NORAD_CAT_ID":67686,"ELEMENT_SET_NO":999,"REV_AT_EPOCH":575,"BSTAR":0.00078390007,"MEAN_MOTION_DOT":0.00050583,"MEAN_MOTION_DDOT":0},{"OBJECT_NAME":"LEOPARD","OBJECT_ID":"1998-067YD","EPOCH":"2026-03-15T23:16:42.746016","MEAN_MOTION":15.52581437,"ECCENTRICITY":0.00081556,"INCLINATION":51.6315,"RA_OF_ASC_NODE":40.5968,"ARG_OF_PERICENTER":177.1771,"MEAN_ANOMALY":182.9267,"EPHEMERIS_TYPE":0,"CLASSIFICATION_TYPE":"U","NORAD_CAT_ID":67687,"ELEMENT_SET_NO":999,"REV_AT_EPOCH":568,"BSTAR":0.00060567073,"MEAN_MOTION_DOT":0.00037658,"MEAN_MOTION_DDOT":0},{"OBJECT_NAME":"ISS OBJECT YE","OBJECT_ID":"1998-067YE","EPOCH":"2026-03-15T04:34:24.545568","MEAN_MOTION":15.53094941,"ECCENTRICITY":0.00082552,"INCLINATION":51.6315,"RA_OF_ASC_NODE":44.3921,"ARG_OF_PERICENTER":171.8524,"MEAN_ANOMALY":188.2602,"EPHEMERIS_TYPE":0,"CLASSIFICATION_TYPE":"U","NORAD_CAT_ID":67688,"ELEMENT_SET_NO":999,"REV_AT_EPOCH":556,"BSTAR":0.00089872899,"MEAN_MOTION_DOT":0.00057311,"MEAN_MOTION_DDOT":0},{"OBJECT_NAME":"CREW DRAGON 12","OBJECT_ID":"2026-031A","EPOCH":"2026-03-15T20:06:35.309952","MEAN_MOTION":15.4829942,"ECCENTRICITY":0.00063362,"INCLINATION":51.6331,"RA_OF_ASC_NODE":41.9615,"ARG_OF_PERICENTER":194.9995,"MEAN_ANOMALY":165.0806,"EPHEMERIS_TYPE":0,"CLASSIFICATION_TYPE":"U","NORAD_CAT_ID":67796,"ELEMENT_SET_NO":999,"REV_AT_EPOCH":55718,"BSTAR":0.00015761534,"MEAN_MOTION_DOT":8.038e-5,"MEAN_MOTION_DDOT":0}]
